      2.10          N: GNSS NAV DATA                        RINEX VERSION / TYPE
fic2rin                                 07/01/2020 00:17:18 PGM / RUN BY / DATE
                                                            END OF HEADER
 4 20  6 30  4  0  0.0-1.087943091989e-04-4.774847184308e-12 0.000000000000e+00
    1.770000000000e+02-4.337500000000e+01 4.843773191167e-09 1.960120057108e+00
   -2.153217792511e-06 7.754014804959e-04 9.093433618546e-06 5.153663776398e+03
    1.872000000000e+05-2.235174179077e-08-1.715238819016e+00-1.862645149231e-08
    9.596219299566e-01 2.056250000000e+02-2.617818677947e+00-8.134981711784e-09
   -3.600149960697e-10 1.000000000000e+00 2.112000000000e+03 0.000000000000e+00
    3.400000000000e+00 0.000000000000e+00-4.190951585770e-09 4.330000000000e+02
    1.800600000000e+05 4.000000000000e+00
 4 20  6 30  4 59 44.0-1.088129356503e-04-4.774847184308e-12 0.000000000000e+00
    1.780000000000e+02-3.790625000000e+01 4.853059292256e-09 2.483899978050e+00
   -1.868233084679e-06 7.760156877339e-04 9.385868906975e-06 5.153661947250e+03
    1.907840000000e+05-5.587935447693e-09-1.715268011546e+00-5.960464477539e-08
    9.596207801030e-01 2.000000000000e+02-2.618837375100e+00-8.104266146643e-09
   -3.496574217780e-10 1.000000000000e+00 2.112000000000e+03 0.000000000000e+00
    2.400000000000e+00 0.000000000000e+00-4.190951585770e-09 4.340000000000e+02
    1.836600000000e+05 4.000000000000e+00
27 20  6 30  3 59 44.0-3.335708752275e-04-9.777068044059e-12 0.000000000000e+00
    1.200000000000e+01-8.309375000000e+01 4.001952411667e-09 2.925523475887e+00
   -4.287809133530e-06 8.313758065924e-03 6.834045052528e-06 5.153669277191e+03
    1.871840000000e+05 2.980232238770e-08 1.392900473473e+00-7.823109626770e-08
    9.777647942055e-01 2.562187500000e+02 5.778544816615e-01-7.947116743597e-09
   -2.764400862678e-10 1.000000000000e+00 2.112000000000e+03 0.000000000000e+00
    2.400000000000e+00 0.000000000000e+00 1.862645149231e-09 1.200000000000e+01
    1.862100000000e+05 4.000000000000e+00
27 20  6 30  5 59 44.0-3.336407244205e-04-9.777068044059e-12 0.000000000000e+00
    3.600000000000e+01-7.525000000000e+01 3.972308319729e-09-2.307427571814e+00
   -3.838911652565e-06 8.312714984640e-03 6.983056664467e-06 5.153671373367e+03
    1.943840000000e+05 3.166496753693e-08 1.392843393335e+00-5.401670932770e-08
    9.777628178032e-01 2.528125000000e+02 5.777994920338e-01-7.932830434229e-09
   -2.828689254833e-10 1.000000000000e+00 2.112000000000e+03 0.000000000000e+00
    2.400000000000e+00 0.000000000000e+00 1.862645149231e-09 3.600000000000e+01
    1.872000000000e+05 4.000000000000e+00
 1 20  6 30  6  0  0.0 1.898733898997e-05 6.252776074689e-12 0.000000000000e+00
    5.000000000000e+01-2.806250000000e+01 3.775871565921e-09 1.859322239457e+00
   -1.464039087296e-06 1.000679202843e-02 1.109950244427e-05 5.153714258194e+03
    1.944000000000e+05-1.881271600723e-07 2.448878573576e+00-2.421438694000e-08
    9.807473199025e-01 1.757187500000e+02 7.967903863178e-01-7.768180718765e-09
    3.764442518427e-10 1.000000000000e+00 2.112000000000e+03 0.000000000000e+00
    2.400000000000e+00 0.000000000000e+00 5.122274160385e-09 5.000000000000e+01
    1.872000000000e+05 4.000000000000e+00
 2 20  6 30  6  0  0.0-4.799780435860e-04-5.798028723802e-12 0.000000000000e+00
    1.010000000000e+02-4.118750000000e+01 4.100527946305e-09 2.103212215962e+00
   -2.130866050720e-06 1.971999090165e-02 9.996816515923e-06 5.153730375290e+03
    1.944000000000e+05 3.390014171600e-07 2.371898396437e+00-2.719461917877e-07
    9.596689218112e-01 1.813437500000e+02-1.621079662166e+00-7.617460154934e-09
    2.867976605595e-10 1.000000000000e+00 2.112000000000e+03 0.000000000000e+00
    2.400000000000e+00 0.000000000000e+00-1.769512891769e-08 1.010000000000e+02
    1.872000000000e+05 4.000000000000e+00
 5 20  6 30  6  0  0.0-1.566577702761e-05-7.958078640513e-13 0.000000000000e+00
    4.000000000000e+01 1.125000000000e+00 4.952706300097e-09-1.494332252525e+00
    9.499490261078e-08 5.973467254080e-03 5.429610610008e-06 5.153683893204e+03
    1.944000000000e+05 8.568167686462e-08-2.826775913055e+00 1.862645149231e-09
    9.531452536857e-01 2.632812500000e+02 8.128988698723e-01-8.299631427249e-09
    4.389468553270e-10 1.000000000000e+00 2.112000000000e+03 0.000000000000e+00
    2.400000000000e+00 0.000000000000e+00-1.117587089539e-08 4.000000000000e+01
    1.872000000000e+05 4.000000000000e+00
 6 20  6 30  6  0  0.0-2.963216975331e-04-5.570655048359e-12 0.000000000000e+00
    3.400000000000e+01-3.465625000000e+01 3.759799467882e-09 2.057035849011e+00
   -1.648440957069e-06 1.831495901570e-03 1.027062535286e-05 5.153567777634e+03
    1.944000000000e+05 1.676380634308e-08 2.440634246076e+00 1.862645149231e-08
    9.802951626455e-01 1.910625000000e+02-1.059797608047e+00-7.628889202428e-09
    3.278707999920e-10 1.000000000000e+00 2.112000000000e+03 0.000000000000e+00
    2.400000000000e+00 0.000000000000e+00 4.190951585770e-09 3.400000000000e+01
    1.872000000000e+05 4.000000000000e+00
 3 20  6 30  6  0  0.0-2.249316312373e-04-1.182343112305e-11 0.000000000000e+00
    9.700000000000e+01 1.437500000000e+00 4.760912596834e-09 8.130066723055e-01
   -1.657754182816e-07 3.020545584150e-03 6.150454282761e-06 5.153789403915e+03
    1.944000000000e+05-2.421438694000e-08-2.794433976169e+00 2.793967723846e-08
    9.662227611592e-01 2.640937500000e+02 7.688452702001e-01-8.234985877359e-09
    3.317995350682e-10 1.000000000000e+00 2.112000000000e+03 0.000000000000e+00
    3.400000000000e+00 0.000000000000e+00 1.862645149231e-09 9.700000000000e+01
    1.872000000000e+05 4.000000000000e+00
 8 20  6 30  6  0  0.0-3.931485116482e-05-1.364242052659e-12 0.000000000000e+00
    2.500000000000e+01-7.806250000000e+01 4.258034507086e-09-2.150886829001e+00
   -3.984197974205e-06 5.345599143766e-03 6.537884473801e-06 5.153689111710e+03
    1.944000000000e+05-1.862645149231e-09 1.378277148741e+00-5.587935447693e-09
    9.693280622560e-01 2.585312500000e+02-5.886039627462e-02-8.146767917013e-09
   -2.992981812563e-10 1.000000000000e+00 2.112000000000e+03 0.000000000000e+00
    2.400000000000e+00 0.000000000000e+00 5.122274160385e-09 2.500000000000e+01
    1.872000000000e+05 4.000000000000e+00
24 20  6 30  6  0  0.0-1.502083614469e-05-5.684341886081e-13 0.000000000000e+00
    3.000000000000e+00 5.925000000000e+01 5.023780689202e-09 2.102902974098e+00
    3.043562173843e-06 9.742076741531e-03 1.049228012562e-05 5.153655342102e+03
    1.944000000000e+05-2.812594175339e-07-7.620523593167e-01-1.005828380585e-07
    9.362839949123e-01 1.650000000000e+02 6.665943213920e-01-8.184269479103e-09
   -3.571577341961e-11 1.000000000000e+00 2.112000000000e+03 0.000000000000e+00
    2.400000000000e+00 0.000000000000e+00 2.793967723846e-09 3.000000000000e+00
    1.872000000000e+05 4.000000000000e+00
14 20  6 30  6  0  0.0-2.196058630943e-06 2.842170943040e-12 0.000000000000e+00
    1.900000000000e+01-2.784375000000e+01 4.706267463502e-09-2.496566469912e+00
   -1.477077603340e-06 1.153950020671e-02 9.290874004364e-06 5.153660779953e+03
    1.944000000000e+05 2.533197402954e-07-1.667277633491e+00 8.568167686462e-08
    9.600607717333e-01 1.959375000000e+02-1.910183464043e+00-7.904614973228e-09
   -2.332240004300e-10 1.000000000000e+00 2.112000000000e+03 0.000000000000e+00
    2.400000000000e+00 0.000000000000e+00-9.778887033463e-09 1.900000000000e+01
    1.872000000000e+05 4.000000000000e+00
21 20  6 30  6  0  0.0 1.786788925529e-05 4.661160346586e-12 0.000000000000e+00
    1.100000000000e+01-2.137500000000e+01 4.449113894881e-09-5.119913437746e-01
   -1.169741153717e-06 2.382874803152e-02 1.069903373718e-05 5.155120374680e+03
    1.944000000000e+05-4.656612873077e-07 2.373928991100e+00 1.303851604462e-07
    9.536486540372e-01 1.768437500000e+02-1.317275265688e+00-8.378563286506e-09
    4.793056792911e-10 1.000000000000e+00 2.112000000000e+03 0.000000000000e+00
    2.400000000000e+00 0.000000000000e+00-1.024454832077e-08 1.100000000000e+01
    1.872000000000e+05 4.000000000000e+00
11 20  6 30  6  0  0.0-2.345419488847e-04 1.068656274583e-11 0.000000000000e+00
    2.800000000000e+01-7.506250000000e+01 5.284862992899e-09 1.340532870438e+00
   -4.064291715622e-06 1.603656867519e-02 9.641051292419e-06 5.153722421646e+03
    1.944000000000e+05 3.185123205185e-07 1.972084531156e+00-3.073364496231e-07
    9.129036001335e-01 1.660937500000e+02 1.999595380042e+00-8.528569534868e-09
    3.035840740667e-11 1.000000000000e+00 2.112000000000e+03 0.000000000000e+00
    2.400000000000e+00 0.000000000000e+00-1.257285475731e-08 2.800000000000e+01
    1.872000000000e+05 4.000000000000e+00
12 20  6 30  6  0  0.0 9.986851364374e-05-4.888534022029e-12 0.000000000000e+00
    2.800000000000e+01 4.803125000000e+01 4.390897184207e-09 4.136739768730e-01
    2.508983016014e-06 8.007089956664e-03 4.058703780174e-06 5.153669321060e+03
    1.944000000000e+05-6.146728992462e-08 4.168423707008e-01 6.332993507385e-08
    9.781040785552e-01 3.097187500000e+02 1.164043620163e+00-8.348562036833e-09
   -1.067901625246e-10 1.000000000000e+00 2.112000000000e+03 0.000000000000e+00
    2.400000000000e+00 0.000000000000e+00-1.210719347000e-08 2.800000000000e+01
    1.872000000000e+05 4.000000000000e+00
 7 20  6 30  6  0  0.0-3.162045031786e-04-8.867573342286e-12 0.000000000000e+00
    6.200000000000e+01 7.215625000000e+01 4.715910722325e-09 1.114612283893e+00
    4.047527909279e-06 1.404031680431e-02 1.174770295620e-05 5.153667737961e+03
    1.944000000000e+05-9.126961231232e-08-6.893589841916e-01 1.676380634308e-07
    9.530516049848e-01 1.514062500000e+02-2.384457709069e+00-8.302488689122e-09
   -1.378628853997e-10 1.000000000000e+00 2.112000000000e+03 0.000000000000e+00
    2.400000000000e+00 0.000000000000e+00-1.117587089539e-08 6.200000000000e+01
    1.872000000000e+05 4.000000000000e+00
